ONEWEB-0045             
1 45151U 20008W   25358.67294686  .00000097  00000+0  23899-3 0  9996
2 45151  87.8860  55.7967 0001907  99.3233 260.8111 13.11419466287530
ONEWEB-0047             
1 45152U 20008X   25358.74859500  .00000346  00000+0  95402-3 0  9993
2 45152  87.8794  71.0420 0001884 107.0896 253.0438 13.10369860285353
ONEWEB-0048             
1 45153U 20008Y   25358.89633700  .00000596  00000+0  16700-2 0  9992
2 45153  87.8792  71.0403 0001644 101.9178 258.2134 13.10375932284988
ONEWEB-0049             
1 45154U 20008Z   25358.89951578  .00000445  00000+0  12379-2 0  9990
2 45154  87.8791  71.0284 0001919 118.0321 242.1001 13.10372008285201
ONEWEB-0051             
1 45155U 20008AA  25358.90012443 -.00000082  00000+0 -26823-3 0  9991
2 45155  87.8844  55.7705 0001801 101.1983 258.9347 13.11418582288249
ONEWEB-0052             
1 45156U 20008AB  25358.74113089  .00000611  00000+0  17151-2 0  9991
2 45156  87.8806  71.0216 0001969 118.1482 241.9844 13.10370970285094
ONEWEB-0053             
1 45157U 20008AC  25358.64734011  .00000546  00000+0  15284-2 0  9997
2 45157  87.8797  71.0845 0001884  94.7067 265.4276 13.10376435285054
ONEWEB-0054             
1 45158U 20008AD  25358.91126303 -.00000141  00000+0 -44013-3 0  9993
2 45158  87.8793  71.0046 0001731 106.3078 253.8240 13.10370008285206
